ONEWEB-0395             
1 50475U 21132G   24285.58842699  .00000297  00000+0  80244-3 0  9990
2 50475  87.8923 143.3213 0001504  67.0614 293.0672 13.11419470135291
ONEWEB-0396             
1 50476U 21132H   24285.55415286  .00000130  00000+0  29617-3 0  9999
2 50476  87.9051  97.5816 0001530  92.6537 267.4770 13.18685667140763
ONEWEB-0397             
1 50477U 21132J   24285.87188104  .00001508  00000+0  37914-2 0  9999
2 50477  87.9051  97.5196 0001701  98.6575 261.4749 13.18700369142054
ONEWEB-0398             
1 50478U 21132K   24285.55618860 -.00000641  00000+0 -18449-2 0  9993
2 50478  87.8918 143.3021 0001864  66.7178 293.4146 13.11415842135182
ONEWEB-0399             
1 50479U 21132L   24285.84781868  .00000071  00000+0  16502-3 0  9999
2 50479  87.8918 143.2631 0001390  90.3159 269.8128 13.11413037136491
ONEWEB-0400             
1 50480U 21132M   24285.54782838  .00000173  00000+0  40660-3 0  9991
2 50480  87.9048  97.5835 0001805  85.1974 274.9364 13.18686023140738
ONEWEB-0401             
1 50481U 21132N   24285.51462661  .00000167  00000+0  39169-3 0  9993
2 50481  87.9046  97.5857 0001706  99.8101 260.3224 13.18684082140732
ONEWEB-0402             
1 50482U 21132P   24285.55574084  .00000114  00000+0  25628-3 0  9998
2 50482  87.9047  97.5749 0001962 113.6171 246.5167 13.18688419140763
